start=new Date('2022-03-22T00:00:00.000Z').valueOf();
sats=[{"TLE_LINE2":"2 45224  53.0447 254.8015 0004313   4.2140 355.8915 15.76705253118815","TIME_SYSTEM":"UTC","MEAN_MOTION_DOT":"0.00039465","ECCENTRICITY":"0.00043130","NORAD_CAT_ID":"45224","OBJECT_TYPE":"PAYLOAD","BSTAR":"0.00024413000000","DECAY_DATE":null,"CLASSIFICATION_TYPE":"U","OBJECT_NAME":"STARLINK-1214","SITE":"AFETR","EPHEMERIS_TYPE":"0","OBJECT_ID":"2020-012AY","LAUNCH_DATE":"2020-02-17","MEAN_MOTION_DDOT":"0.0000000000000","MEAN_ANOMALY":"355.8915","PERIOD":"91.330","GP_ID":"199346659","FILE":"3368836","MEAN_MOTION":"15.76705253","RA_OF_ASC_NODE":"254.8015","RCS_SIZE":"LARGE","COUNTRY_CODE":"US","SEMIMAJOR_AXIS":"6717.920","EPOCH":"2022-03-21T21:08:37.605120","INCLINATION":"53.0447","ELEMENT_SET_NO":"999","REV_AT_EPOCH":"11881","MEAN_ELEMENT_THEORY":"SGP4","REF_FRAME":"TEME","ARG_OF_PERICENTER":"4.2140","CENTER_NAME":"EARTH","APOAPSIS":"342.682","PERIAPSIS":"336.888","TLE_LINE1":"1 45224U 20012AY  22080.88099080  .00039465  00000-0  24413-3 0  9990"},{"FILE":"3368827","MEAN_MOTION_DDOT":"0.0000000000000","MEAN_ANOMALY":"309.0253","PERIOD":"95.591","GP_ID":"199321006","SITE":"AFETR","EPHEMERIS_TYPE":"0","LAUNCH_DATE":"2020-02-17","OBJECT_ID":"2020-012AZ","OBJECT_NAME":"STARLINK-1215","OBJECT_TYPE":"PAYLOAD","DECAY_DATE":null,"BSTAR":"0.00026225000000","CLASSIFICATION_TYPE":"U","TIME_SYSTEM":"UTC","MEAN_MOTION_DOT":"0.00003628","ECCENTRICITY":"0.00021840","NORAD_CAT_ID":"45225","TLE_LINE2":"2 45225  53.0554  32.0290 0002184  51.0930 309.0253 15.06414033116930","APOAPSIS":"548.683","PERIAPSIS":"545.658","TLE_LINE1":"1 45225U 20012AZ  22080.55395033  .00003628  00000-0  26225-3 0  9997","CENTER_NAME":"EARTH","ARG_OF_PERICENTER":"51.0930","REV_AT_EPOCH":"11693","ELEMENT_SET_NO":"999","MEAN_ELEMENT_THEORY":"SGP4","REF_FRAME":"TEME","INCLINATION":"53.0554","RCS_SIZE":"LARGE","COUNTRY_CODE":"US","SEMIMAJOR_AXIS":"6925.306","EPOCH":"2022-03-21T13:17:41.308512","RA_OF_ASC_NODE":"32.0290","MEAN_MOTION":"15.06414033"},{"ARG_OF_PERICENTER":"68.0431","CENTER_NAME":"EARTH","APOAPSIS":"548.483","PERIAPSIS":"545.914","TLE_LINE1":"1 45226U 20012BA  22080.89305883  .00000849  00000-0  75898-4 0  9992","MEAN_MOTION":"15.06405018","RA_OF_ASC_NODE":"30.5153","COUNTRY_CODE":"US","RCS_SIZE":"LARGE","SEMIMAJOR_AXIS":"6925.333","EPOCH":"2022-03-21T21:26:00.282912","INCLINATION":"53.0567","ELEMENT_SET_NO":"999","REV_AT_EPOCH":"11694","REF_FRAME":"TEME","MEAN_ELEMENT_THEORY":"SGP4","SITE":"AFETR","EPHEMERIS_TYPE":"0","LAUNCH_DATE":"2020-02-17","OBJECT_ID":"2020-012BA","MEAN_MOTION_DDOT":"0.0000000000000","MEAN_ANOMALY":"292.0755","PERIOD":"95.592","GP_ID":"199345658","FILE":"3368836","TLE_LINE2":"2 45226  53.0567  30.5153 0001855  68.0431 292.0755 15.06405018116946","TIME_SYSTEM":"UTC","MEAN_MOTION_DOT":"0.00000849","ECCENTRICITY":"0.00018550","NORAD_CAT_ID":"45226","OBJECT_TYPE":"PAYLOAD","BSTAR":"0.00007589800000","DECAY_DATE":null,"CLASSIFICATION_TYPE":"U","OBJECT_NAME":"STARLINK-1217"},{"SITE":"AFETR","EPHEMERIS_TYPE":"0","OBJECT_ID":"2020-012BB","LAUNCH_DATE":"2020-02-17","MEAN_MOTION_DDOT":"0.0000000000000","MEAN_ANOMALY":"306.3819","PERIOD":"95.592","GP_ID":"199345908","FILE":"3368836","TLE_LINE2":"2 45227  53.0550  31.9017 0001728  53.7330 306.3819 15.06399431116908","TIME_SYSTEM":"UTC","MEAN_MOTION_DOT":"-0.00000093","ECCENTRICITY":"0.00017280","NORAD_CAT_ID":"45227","OBJECT_TYPE":"PAYLOAD","DECAY_DATE":null,"BSTAR":"0.00001264100000","CLASSIFICATION_TYPE":"U","OBJECT_NAME":"STARLINK-1221","ARG_OF_PERICENTER":"53.7330","CENTER_NAME":"EARTH","APOAPSIS":"548.412","PERIAPSIS":"546.019","TLE_LINE1":"1 45227U 20012BB  22080.58343994 -.00000093  00000-0  12641-4 0  9993","MEAN_MOTION":"15.06399431","RA_OF_ASC_NODE":"31.9017","RCS_SIZE":"LARGE","COUNTRY_CODE":"US","SEMIMAJOR_AXIS":"6925.350","EPOCH":"2022-03-21T14:00:09.210816","INCLINATION":"53.0550","ELEMENT_SET_NO":"999","REV_AT_EPOCH":"11690","REF_FRAME":"TEME","MEAN_ELEMENT_THEORY":"SGP4"},{"OBJECT_NAME":"STARLINK-1222","CLASSIFICATION_TYPE":"U","BSTAR":"-0.00003888600000","DECAY_DATE":null,"OBJECT_TYPE":"PAYLOAD","NORAD_CAT_ID":"45228","ECCENTRICITY":"0.00017990","MEAN_MOTION_DOT":"-0.00000861","TIME_SYSTEM":"UTC","TLE_LINE2":"2 45228  53.0554  31.8862 0001799  54.2669 305.8487 15.06403580116871","FILE":"3368836","GP_ID":"199346161","PERIOD":"95.592","MEAN_ANOMALY":"305.8487","MEAN_MOTION_DDOT":"0.0000000000000","OBJECT_ID":"2020-012BC","LAUNCH_DATE":"2020-02-17","EPHEMERIS_TYPE":"0","SITE":"AFETR","MEAN_ELEMENT_THEORY":"SGP4","REF_FRAME":"TEME","ELEMENT_SET_NO":"999","REV_AT_EPOCH":"11687","INCLINATION":"53.0554","EPOCH":"2022-03-21T14:05:28.256640","SEMIMAJOR_AXIS":"6925.338","RCS_SIZE":"LARGE","COUNTRY_CODE":"US","MEAN_MOTION":"15.06403580","RA_OF_ASC_NODE":"31.8862","TLE_LINE1":"1 45228U 20012BC  22080.58713260 -.00000861  00000-0 -38886-4 0  9994","PERIAPSIS":"545.957","APOAPSIS":"548.448","CENTER_NAME":"EARTH","ARG_OF_PERICENTER":"54.2669"},{"MEAN_MOTION":"15.06399941","RA_OF_ASC_NODE":"30.8714","EPOCH":"2022-03-21T19:34:33.014496","SEMIMAJOR_AXIS":"6925.349","COUNTRY_CODE":"US","RCS_SIZE":"LARGE","INCLINATION":"53.0572","REF_FRAME":"TEME","MEAN_ELEMENT_THEORY":"SGP4","ELEMENT_SET_NO":"999","REV_AT_EPOCH":"11691","ARG_OF_PERICENTER":"48.0999","CENTER_NAME":"EARTH","TLE_LINE1":"1 45229U 20012BD  22080.81565989  .00000996  00000-0  85772-4 0  9997","PERIAPSIS":"546.002","APOAPSIS":"548.425","TLE_LINE2":"2 45229  53.0572  30.8714 0001749  48.0999 312.0139 15.06399941116913","NORAD_CAT_ID":"45229","ECCENTRICITY":"0.00017490","MEAN_MOTION_DOT":"0.00000996","TIME_SYSTEM":"UTC","CLASSIFICATION_TYPE":"U","BSTAR":"0.00008577200000","DECAY_DATE":null,"OBJECT_TYPE":"PAYLOAD","OBJECT_NAME":"STARLINK-1226","OBJECT_ID":"2020-012BD","LAUNCH_DATE":"2020-02-17","EPHEMERIS_TYPE":"0","SITE":"AFETR","GP_ID":"199346910","PERIOD":"95.592","MEAN_ANOMALY":"312.0139","MEAN_MOTION_DDOT":"0.0000000000000","FILE":"3368836"},{"FILE":"3368630","GP_ID":"199296324","PERIOD":"95.593","MEAN_ANOMALY":"295.1988","MEAN_MOTION_DDOT":"0.0000000000000","LAUNCH_DATE":"2020-02-17","OBJECT_ID":"2020-012BE","EPHEMERIS_TYPE":"0","SITE":"AFETR","OBJECT_NAME":"STARLINK-1227","CLASSIFICATION_TYPE":"U","DECAY_DATE":null,"BSTAR":"-0.00007889100000","OBJECT_TYPE":"PAYLOAD","NORAD_CAT_ID":"45230","ECCENTRICITY":"0.00012710","MEAN_MOTION_DOT":"-0.00001456","TIME_SYSTEM":"UTC","TLE_LINE2":"2 45230  53.0564  30.5770 0001271  64.9133 295.1988 15.06387518116091","TLE_LINE1":"1 45230U 20012BE  22080.87831893 -.00001456  00000-0 -78891-4 0  9993","PERIAPSIS":"546.372","APOAPSIS":"548.132","CENTER_NAME":"EARTH","ARG_OF_PERICENTER":"64.9133","MEAN_ELEMENT_THEORY":"SGP4","REF_FRAME":"TEME","REV_AT_EPOCH":"11609","ELEMENT_SET_NO":"999","INCLINATION":"53.0564","EPOCH":"2022-03-21T21:04:46.755552","SEMIMAJOR_AXIS":"6925.387","RCS_SIZE":"LARGE","COUNTRY_CODE":"US","RA_OF_ASC_NODE":"30.5770","MEAN_MOTION":"15.06387518"},{"MEAN_MOTION":"15.76740830","RA_OF_ASC_NODE":"260.5563","EPOCH":"2022-03-21T17:35:53.377152","RCS_SIZE":"LARGE","COUNTRY_CODE":"US","SEMIMAJOR_AXIS":"6717.819","INCLINATION":"53.0270","MEAN_ELEMENT_THEORY":"SGP4","REF_FRAME":"TEME","ELEMENT_SET_NO":"999","REV_AT_EPOCH":"11870","ARG_OF_PERICENTER":"286.2051","CENTER_NAME":"EARTH","TLE_LINE1":"1 45231U 20012BF  22080.73325668 -.00001708  00000-0 -63214-5 0  9991","APOAPSIS":"345.609","PERIAPSIS":"333.759","TLE_LINE2":"2 45231  53.0270 260.5563 0008820 286.2051  73.7997 15.76740830118703","ECCENTRICITY":"0.00088200","NORAD_CAT_ID":"45231","TIME_SYSTEM":"UTC","MEAN_MOTION_DOT":"-0.00001708","CLASSIFICATION_TYPE":"U","OBJECT_TYPE":"PAYLOAD","DECAY_DATE":null,"BSTAR":"-0.00000632140000","OBJECT_NAME":"STARLINK-1229","OBJECT_ID":"2020-012BF","LAUNCH_DATE":"2020-02-17","SITE":"AFETR","EPHEMERIS_TYPE":"0","PERIOD":"91.328","GP_ID":"199345410","MEAN_MOTION_DDOT":"0.0000000000000","MEAN_ANOMALY":"73.7997","FILE":"3368836"},{"INCLINATION":"53.0554","MEAN_ELEMENT_THEORY":"SGP4","REF_FRAME":"TEME","REV_AT_EPOCH":"11702","ELEMENT_SET_NO":"999","MEAN_MOTION":"15.06412917","RA_OF_ASC_NODE":"30.8271","EPOCH":"2022-03-21T19:45:08.886528","SEMIMAJOR_AXIS":"6925.309","COUNTRY_CODE":"US","RCS_SIZE":"LARGE","TLE_LINE1":"1 45232U 20012BG  22080.82301952  .00001324  00000-0  10771-3 0  9992","PERIAPSIS":"545.895","APOAPSIS":"548.453","ARG_OF_PERICENTER":"52.6252","CENTER_NAME":"EARTH","CLASSIFICATION_TYPE":"U","DECAY_DATE":null,"BSTAR":"0.00010771000000","OBJECT_TYPE":"PAYLOAD","OBJECT_NAME":"STARLINK-1235","TLE_LINE2":"2 45232  53.0554  30.8271 0001847  52.6252 307.4905 15.06412917117028","NORAD_CAT_ID":"45232","ECCENTRICITY":"0.00018470","MEAN_MOTION_DOT":"0.00001324","TIME_SYSTEM":"UTC","FILE":"3368836","LAUNCH_DATE":"2020-02-17","OBJECT_ID":"2020-012BG","EPHEMERIS_TYPE":"0","SITE":"AFETR","GP_ID":"199346660","PERIOD":"95.591","MEAN_ANOMALY":"307.4905","MEAN_MOTION_DDOT":"0.0000000000000"},{"CENTER_NAME":"EARTH","ARG_OF_PERICENTER":"61.2137","TLE_LINE1":"1 45233U 20012BH  22080.93544848 -.00000006  00000-0  18518-4 0  9993","PERIAPSIS":"546.072","APOAPSIS":"548.392","EPOCH":"2022-03-21T22:27:02.748672","SEMIMAJOR_AXIS":"6925.367","RCS_SIZE":"LARGE","COUNTRY_CODE":"US","RA_OF_ASC_NODE":"50.3360","MEAN_MOTION":"15.06394128","REF_FRAME":"TEME","MEAN_ELEMENT_THEORY":"SGP4","ELEMENT_SET_NO":"999","REV_AT_EPOCH":"11674","INCLINATION":"53.0570","GP_ID":"199346412","PERIOD":"95.593","MEAN_ANOMALY":"298.9020","MEAN_MOTION_DDOT":"0.0000000000000","OBJECT_ID":"2020-012BH","LAUNCH_DATE":"2020-02-17","EPHEMERIS_TYPE":"0","SITE":"AFETR","FILE":"3368836","NORAD_CAT_ID":"45233","ECCENTRICITY":"0.00016750","MEAN_MOTION_DOT":"-0.00000006","TIME_SYSTEM":"UTC","TLE_LINE2":"2 45233  53.0570  50.3360 0001675  61.2137 298.9020 15.06394128116743","OBJECT_NAME":"STARLINK-1238","CLASSIFICATION_TYPE":"U","BSTAR":"0.00001851800000","DECAY_DATE":null,"OBJECT_TYPE":"PAYLOAD"}];
